COSMOS 2433 (720)       
1 32275U 07052A   22138.78842297 -.00000059  00000+0  00000+0 0  9999
2 32275  66.0821   5.6542 0000996 296.6584 246.0866  2.13104150113330
COSMOS 2432 (719)       
1 32276U 07052B   22138.77409833 -.00000059  00000+0  00000+0 0  9994
2 32276  66.0942   5.7597 0010358 340.8927 139.2710  2.13103478113335
COSMOS 2434 (721)       
1 32393U 07065A   22138.72455317  .00000022  00000+0  00000+0 0  9990
2 32393  64.3892 242.4401 0003187  89.5020 293.7061  2.13103246112042
COSMOS 2436 (723)       
1 32395U 07065C   22138.84989997  .00000021  00000+0  00000+0 0  9990
2 32395  64.3984 242.4917 0015170   2.8512 252.4161  2.13103047111970
COSMOS 2456 (730)       
1 36111U 09070A   22138.31198734  .00000057  00000+0  00000+0 0  9990
2 36111  64.3460 122.0891 0006311 303.4074 289.2773  2.13099319 96697
COSMOS 2457 (733)       
1 36112U 09070B   22138.94782859  .00000057  00000+0  00000+0 0  9997
2 36112  64.3297 121.9435 0004167 200.7226 286.8103  2.13101503 96715
COSMOS 2461 (735)       
1 36401U 10007B   22138.89082841 -.00000059  00000+0  00000+0 0  9991
2 36401  65.9691   4.4937 0021787  10.5650 108.2058  2.13103895 95067
COSMOS 2460 (732)       
1 36402U 10007C   22138.49252332 -.00000057  00000+0  00000+0 0  9990
2 36402  65.9560   4.4573 0002490  47.0325  74.3030  2.13106499 95058
COSMOS 2464 (736)       
1 37139U 10041C   22138.94782858  .00000020  00000+0  00000+0 0  9996
2 37139  63.9894 241.5220 0028806  11.7121  41.2324  2.13100841 91126
COSMOS 2476 (744)       
1 37867U 11064A   22138.28906859  .00000059  00000+0  00000+0 0  9998
2 37867  64.6352 123.4348 0023128 241.8225 238.5409  2.13101964 82046
COSMOS 2477 (745)       
1 37868U 11064B   22137.77339785  .00000060  00000+0  00000+0 0  9992
2 37868  64.6433 123.5168 0020485 243.2154  19.6672  2.13101753 81986
COSMOS 2475 (743)       
1 37869U 11064C   22138.71835321  .00000059  00000+0  00000+0 0  9993
2 37869  64.6513 123.4921 0025286 258.7974 326.9981  2.13102026 82013
COSMOS 2485 (747)       
1 39155U 13019A   22138.20515822  .00000060  00000+0  00000+0 0  9992
2 39155  64.8000 123.8593 0023423 237.7791 222.5987  2.13101970 70516
COSMOS 2492 (754)       
1 39620U 14012A   22138.73944617 -.00000058  00000+0  00000+0 0  9997
2 39620  65.8413   4.1339 0013103 333.5672 211.2112  2.13103275 63470
COSMOS 2500 (755)       
1 40001U 14032A   22138.80935154 -.00000059  00000+0  00000+0 0  9999
2 40001  65.7834   3.9957 0004283 190.0001 267.1564  2.13102561 61695
COSMOS 2501 (702K)      
1 40315U 14075A   22138.66002154  .00000022  00000+0  00000+0 0  9992
2 40315  63.6972 242.2118 0017697 207.7930 302.6357  2.13101535 58095
COSMOS 2514 (751)       
1 41330U 16008A   22138.44318768 -.00000057  00000+0  00000+0 0  9994
2 41330  65.5818   3.7066 0007920 204.5322 155.4867  2.13102680 48858
COSMOS 2516 (753)       
1 41554U 16032A   22138.76761865  .00000021  00000+0  00000+0 0  9994
2 41554  63.9227 242.4764 0014051 214.0461 296.9806  2.13106370 46461
COSMOS 2522 (752)       
1 42939U 17055A   22138.70554395  .00000022  00000+0  00000+0 0  9991
2 42939  64.1551 242.8647 0007168 239.1239  81.5904  2.13102007 36210
COSMOS 2527 (756)       
1 43508U 18053A   22138.57839378  .00000060  00000+0  00000+0 0  9997
2 43508  64.9620 123.8397 0009788 243.7519  11.5285  2.13102593 30501
COSMOS 2529 (757)       
1 43687U 18086A   22138.76553051  .00000021  00000+0  00000+0 0  9990
2 43687  64.3707 243.1713 0009011 264.9165  57.3351  2.13102162 27520
COSMOS 2534 (758)       
1 44299U 19030A   22138.50511035  .00000023  00000+0  00000+0 0  9990
2 44299  64.4440 243.0615 0011544 288.1594 328.9009  2.13102109 23167
COSMOS 2544 (759)       
1 44850U 19088A   22139.14165277  .00000060  00000+0  00000+0 0  9991
2 44850  64.9484 123.6743 0014715 264.1331 106.7532  2.13102384 18953
COSMOS 2545 (760)       
1 45358U 20018A   22138.94163691 -.00000061  00000+0  00000+0 0  9997
2 45358  64.9187   4.3224 0006996 255.9434 171.0109  2.13102773 16900
COSMOS 2547 (705K)      
1 46805U 20075A   22138.61306763  .00000023  00000+0  00000+0 0  9998
2 46805  64.6678 242.4737 0006554 243.4414 144.0258  2.13103270 12144
